{
  "type": "FeatureCollection",
  "features": [
    {
      "type": "Feature",
      "properties": {
        "name": "start",
        "description": "Araç başlangıç konumu",
        "nokta_id": 0,
        "town": "Town03",
        "carla_x": 220.4112091064453,
        "carla_y": -5.188553810119629,
        "carla_z": 0.2,
        "carla_yaw": -179.14419555664062,
        "kind": "start"
      },
      "geometry": {
        "type": "Point",
        "coordinates": [
          220.4112091064453,
          -5.188553810119629
        ]
      }
    },
    {
      "type": "Feature",
      "properties": {
        "name": "gorev_1",
        "description": "Görev 1 - yolcu alma",
        "nokta_id": 1,
        "town": "Town03",
        "carla_x": 115.58174133300781,
        "carla_y": -6.754454135894775,
        "carla_z": 0.10968294739723206,
        "carla_yaw": -179.14419555664062,
        "road_id": 7,
        "lane_id": -2,
        "is_junction": false,
        "task_stop_mode": "pull_over_pose",
        "task_stop_source": "raw_editor_vehicle_pose",
        "task_stop_side": "right",
        "task_stop_x": 115.6,
        "task_stop_y": -9.8,
        "task_stop_z": 0.0,
        "task_stop_yaw": 180.000198,
        "kind": "pickup"
      },
      "geometry": {
        "type": "Point",
        "coordinates": [
          115.58174133300781,
          -6.754454135894775
        ]
      }
    },
    {
      "type": "Feature",
      "properties": {
        "name": "gorev_2",
        "description": "2. yolcu alma/indirme noktası - tünel sonrası alt bölge",
        "nokta_id": 2,
        "town": "Town03",
        "carla_x": 232.37306213378906,
        "carla_y": -31.051101684570312,
        "carla_z": 0.0,
        "carla_yaw": 91.39320373535156,
        "road_id": 65,
        "lane_id": -2,
        "is_junction": false,
        "task_stop_mode": "pull_over_pose",
        "task_stop_source": "raw_editor_vehicle_pose",
        "task_stop_side": "right",
        "task_stop_x": 229.0,
        "task_stop_y": -24.5,
        "task_stop_z": 0.0,
        "task_stop_yaw": 90.0001,
        "kind": "dropoff"
      },
      "geometry": {
        "type": "Point",
        "coordinates": [
          232.37306213378906,
          -31.051101684570312
        ]
      }
    },
    {
      "type": "Feature",
      "properties": {
        "name": "park_giris",
        "description": "Park bölgesi giriş noktası",
        "nokta_id": 3,
        "town": "Town03",
        "carla_x": 110.90546417236328,
        "carla_y": 193.2543182373047,
        "carla_z": 1.545485258102417,
        "carla_yaw": 179.85702514648438,
        "road_id": 67,
        "lane_id": -2,
        "is_junction": false,
        "kind": "park_entry"
      },
      "geometry": {
        "type": "Point",
        "coordinates": [
          110.90546417236328,
          193.2543182373047
        ]
      }
    }
  ]
}
